DUPLEX                  
1 66906U 98067XS  26099.83834142  .00027767  00000+0  36408-3 0  9998
2 66906  51.6283 273.4080 0003598 265.6183  94.4398 15.58333225 19985
ISS OBJECT XT           
1 66907U 98067XT  26098.84614494  .00301366  00000+0  13446-2 0  9991
2 66907  51.6214 270.4728 0008369 277.8319  82.1733 15.82828935 19939
ISS OBJECT XU           
1 66908U 98067XU  26099.84969020  .00304231  00000+0  12922-2 0  9993
2 66908  51.6206 265.1662 0008691 282.1116  77.8914 15.83860648 20090
SILVERSAT               
1 66909U 98067XV  26099.87526971  .00559522  13679-3  15127-2 0  9996
2 66909  51.6162 263.0552 0011158 291.0799  68.9015 15.93591833 20120
ISS OBJECT XW           
1 66910U 98067XW  26099.87834547  .00233104  00000+0  11519-2 0  9995
2 66910  51.6196 265.3554 0008510 278.2943  81.7093 15.80810972 20091
ISS OBJECT XX           
1 66911U 98067XX  26099.85627033  .02454730  91411-2  19662-2 0  9992
2 66911  51.6079 260.6037 0013677 296.9856  62.9763 16.15715135 20141
ISS OBJECT XY           
1 66912U 98067XY  26098.87654019  .00107568  00000+0  84837-3 0  9998
2 66912  51.6252 273.7143 0005572 269.5451  90.4908 15.70570969 19880
KNACKSAT-2              
1 67683U 98067XZ  26099.86922060  .00036065  00000+0  53953-3 0  9996
2 67683  51.6307 276.6160 0011011 302.4945  57.4981 15.54571080  9631
CORAL                   
1 67684U 98067YA  26099.89197063  .00086998  00000+0  10402-2 0  9998
2 67684  51.6285 275.2663 0014359 293.5259  66.4225 15.60135098  9651
GXIBA-1                 
1 67685U 98067YB  26099.85443961  .00040873  00000+0  59441-3 0  9995
2 67685  51.6300 276.5168 0012910 299.2817  60.6883 15.55258740  9636
UITMSAT-2               
1 67686U 98067YC  26099.89540830  .00054506  00000+0  75351-3 0  9999
2 67686  51.6303 276.0435 0009960 275.7510  84.2345 15.56542736  9640
HMU-SAT2                
1 67687U 98067YD  26099.86147696  .00037279  00000+0  54987-3 0  9990
2 67687  51.6320 276.5683 0009386 277.6177  82.3748 15.54960934  9550
LEOPARD                 
1 67688U 98067YE  26098.87837377  .00042408  00000+0  60389-3 0  9996
2 67688  51.6302 281.2523 0009494 271.8691  88.1213 15.55857474  9404
CREW DRAGON 12          
1 67796U 26031A   26100.19894350  .00006976  00000+0  13529-3 0  9995
2 67796  51.6328 276.5654 0006432 294.6645  65.3674 15.48858067561238
PROGRESS-MS 33          
1 68319U 26058A   26100.19894350  .00006976  00000+0  13529-3 0  9996
2 68319  51.6328 276.5654 0006432 294.6645  65.3674 15.48858067  2241
